{
  "norad_id": 64690,
  "name": "STARLINK-34250",
  "history": [
    {
      "epoch": "2026-03-28T05:50:32.247456Z",
      "apogee_km": 475.92838054175445,
      "perigee_km": 474.423393031816,
      "latitude_deg": 5.491336094142679e-05,
      "longitude_deg": 127.62930647603318,
      "height_km": 476.26948196846007,
      "semi_major_axis_km": 6853.312886786785,
      "eccentricity": 0.0001098,
      "inclination_deg": 53.1616,
      "raan_deg": 40.9303,
      "arg_perigee_deg": 105.0245,
      "mean_anomaly_deg": 255.0878,
      "mean_motion_rev_day": 15.30213123
    },
    {
      "epoch": "2026-03-29T03:47:17.059776Z",
      "apogee_km": 476.10689955742055,
      "perigee_km": 474.3263982794315,
      "latitude_deg": -8.799678271625925e-06,
      "longitude_deg": 153.2938595867068,
      "height_km": 475.7460837917011,
      "semi_major_axis_km": 6853.353648918426,
      "eccentricity": 0.0001299,
      "inclination_deg": 53.1605,
      "raan_deg": 36.6829,
      "arg_perigee_deg": 65.5254,
      "mean_anomaly_deg": 294.5882,
      "mean_motion_rev_day": 15.30199471
    },
    {
      "epoch": "2026-03-30T03:18:05.075136Z",
      "apogee_km": 476.0163011673221,
      "perigee_km": 474.38109526972767,
      "latitude_deg": 1.3934752561984185e-05,
      "longitude_deg": 155.07745464955678,
      "height_km": 475.8292995546389,
      "semi_major_axis_km": 6853.335698218525,
      "eccentricity": 0.0001193,
      "inclination_deg": 53.16,
      "raan_deg": 32.1322,
      "arg_perigee_deg": 70.8897,
      "mean_anomaly_deg": 289.2233,
      "mean_motion_rev_day": 15.30205483
    }
  ]
}